[{"OBJECT_NAME":"STARLINK-31399","OBJECT_ID":"2024-064U","EPOCH":"2026-03-09T23:45:15.858432","MEAN_MOTION":15.27558367,"ECCENTRICITY":0.00023887,"INCLINATION":43.0024,"RA_OF_ASC_NODE":54.3007,"ARG_OF_PERICENTER":299.8339,"MEAN_ANOMALY":60.2275,"EPHEMERIS_TYPE":0,"CLASSIFICATION_TYPE":"U","NORAD_CAT_ID":59416,"ELEMENT_SET_NO":999,"REV_AT_EPOCH":10927,"BSTAR":-7.9740352e-5,"MEAN_MOTION_DOT":-2.455e-5,"MEAN_MOTION_DDOT":0},{"OBJECT_NAME":"OBJECT B","OBJECT_ID":"2024-092B","EPOCH":"2026-03-09T22:35:16.756224","MEAN_MOTION":15.26654665,"ECCENTRICITY":0.00097063,"INCLINATION":97.6334,"RA_OF_ASC_NODE":195.5822,"ARG_OF_PERICENTER":166.5945,"MEAN_ANOMALY":193.5553,"EPHEMERIS_TYPE":0,"CLASSIFICATION_TYPE":"U","NORAD_CAT_ID":59774,"ELEMENT_SET_NO":999,"REV_AT_EPOCH":10038,"BSTAR":0.00052893964,"MEAN_MOTION_DOT":0.00013825,"MEAN_MOTION_DDOT":0}]
